YAOGAN-36 01C           
1 53947U 22120E   22295.23736407  .00013355  00000+0  53922-3 0  9997
2 53947  34.9982  23.6446 0003320 213.7074 238.9530 15.23959577  3929
2022-121A               
1 53948U 22121A   22295.37509655  .00006235  00000+0  30851-3 0  9992
2 53948  97.4545 315.6339 0013161 172.9285 314.5840 15.18087676  3851
2022-121B               
1 53949U 22121B   22295.16680750  .00004770  00000+0  23613-3 0  9996
2 53949  97.4522 315.4275 0011995 177.2655 268.4608 15.18209244  3829
2022-121C               
1 53950U 22121C   22295.36890259  .00003877  00000+0  19121-3 0  9993
2 53950  97.4553 315.6462 0013210 183.2939 309.3502 15.18442205  3856
SELFIESAT               
1 53951U 22057BA  22295.16596721  .00007111  00000+0  39886-3 0  9992
2 53951  97.5280  48.1026 0011610  88.4753 271.7808 15.13614472 22596
SES-20                  
1 53960U 22123A   22294.80000000  .00000122  00000+0  00000+0 0  9993
2 53960   0.3760 175.0030 0004715  97.8810 264.0200  1.00236734   153
SES-21                  
1 53961U 22123B   22294.80000000  .00000126  00000+0  00000+0 0  9998
2 53961   0.4910 170.1820 0001113   4.2290   1.2940  1.00237991   178
ATLAS 5 CENTAUR R/B     
1 53962U 22123C   22294.85639286 -.00000061  00000+0  00000+0 0  9997
2 53962   1.8751 165.4563 0290112 199.8113 159.6550  1.07593322   188
CREW DRAGON 5           
1 53963U 22124A   22294.50538039  .00010881  00000+0  20098-3 0  9998
2 53963  51.6422  70.7791 0005201   0.5270 115.1553 15.49619700364771
STARLINK-4633           
1 53964U 22125A   22295.16667824 -.01193997  00000+0 -11434-1 0  9993
2 53964  53.2174  11.4524 0001392  40.3856  18.2230 15.68607998  2949
STARLINK-4578           
1 53965U 22125B   22295.16667824 -.01193868  00000+0 -11414-1 0  9999
2 53965  53.2174  11.4504 0001588  32.4509  26.9959 15.68645536  2946
STARLINK-4635           
1 53966U 22125C   22295.16667824 -.01194000  00000+0 -11393-1 0  9995
2 53966  53.2174  11.4488 0001451  37.7874  22.5644 15.68694138  2945
STARLINK-4634           
1 53967U 22125D   22295.16667824 -.01194150  00000+0 -11373-1 0  9990
2 53967  53.2174  11.4468 0001411  39.7395  21.4984 15.68740193  2948
STARLINK-4629           
1 53968U 22125E   22295.16667824 -.01194185  00000+0 -11309-1 0  9998
2 53968  53.2174  11.4416 0001491  36.4343  27.4314 15.68876141  2943
STARLINK-4468           
1 53969U 22125F   22295.16667824 -.01194182  00000+0 -11350-1 0  9992
2 53969  53.2174  11.4450 0001422  39.3001  22.8418 15.68789579  2941
STARLINK-4567           
1 53970U 22125G   22295.58334491 -.00031008  00000+0 -21690-3 0  9997
2 53970  53.2187   9.3632 0002763  19.5482 260.0012 15.73238726  3000
STARLINK-4639           
1 53971U 22125H   22295.16667824 -.01194104  00000+0 -11329-1 0  9995
2 53971  53.2174  11.4432 0001528  34.6998  28.2971 15.68831451  2945
STARLINK-5157           
1 53972U 22125J   22295.50001157  .00042943  00000+0  30886-3 0  9996
2 53972  53.2191   9.7731 0002770  24.8637 143.6070 15.73194998  2999
STARLINK-5156           
1 53973U 22125K   22294.91667824 -.01220015  00000+0 -11222-1 0  9992
2 53973  53.2175  12.6712 0005234 271.1858 180.4539 15.69585248  2901
STARLINK-5159           
1 53974U 22125L   22295.50001157  .00043999  00000+0  31629-3 0  9996
2 53974  53.2217   9.4653 0001720  48.8288 273.0938 15.73198366  2996
STARLINK-5137           
1 53975U 22125M   22295.50001157  .00047734  00000+0  34298-3 0  9993
2 53975  53.2183   9.7738 0003010  17.6360 150.2700 15.73170127  2993
STARLINK-5134           
1 53976U 22125N   22295.58334491  .00007860  00000+0  60322-4 0  9996
2 53976  53.2203   9.3110 0001780  35.8814 271.0015 15.73219025  3000
STARLINK-5094           
1 53977U 22125P   22295.50001157  .00042738  00000+0  30729-3 0  9999
2 53977  53.2185   9.7706 0003174   7.9986 161.6311 15.73203251  2998
STARLINK-5148           
1 53978U 22125Q   22295.50001157  .00011860  00000+0  88838-4 0  9997
2 53978  53.2186   9.7673 0002242  26.6917 144.7640 15.73191450  2994
STARLINK-5123           
1 53979U 22125R   22295.50001157  .00033093  00000+0  23918-3 0  9997
2 53979  53.2189   9.7692 0002859  22.2058 148.0742 15.73206879  2993
STARLINK-5133           
1 53980U 22125S   22295.50001157 -.00001289  00000+0 -47381-5 0  9995
2 53980  53.2193   9.7665 0002826  15.0814 156.9398 15.73242872  2992
STARLINK-5149           
1 53981U 22125T   22295.50001157  .00035602  00000+0  25691-3 0  9998
2 53981  53.2217   9.7066 0002230  22.7624 179.8827 15.73208115  2991
STARLINK-5120           
1 53982U 22125U   22295.16667824  .00080451  00000+0  57300-3 0  9994
2 53982  53.2190  11.4018 0002480  24.3125  64.7349 15.73163880  2945
STARLINK-5103           
1 53983U 22125V   22295.16667824  .00044213  00000+0  31828-3 0  9998
2 53983  53.2183  11.3735 0002566  20.8217  82.0166 15.73160860  2946
STARLINK-5142           
1 53984U 22125W   22294.91667824 -.00060836  00000+0 -43143-3 0  9995
2 53984  53.2190  12.6487 0002188  22.8630  85.2850 15.73237036  1308
STARLINK-5147           
1 53985U 22125X   22295.16667824  .00078498  00000+0  55951-3 0  9995
2 53985  53.2190  11.4122 0002187  19.8748  63.8577 15.73156838  2946
STARLINK-5119           
1 53986U 22125Y   22295.50001157 -.00223905  00000+0 -16202-2 0  9997
2 53986  53.2186   9.4619 0001445  44.3649 275.5457 15.73392744  2991
STARLINK-5112           
1 53987U 22125Z   22295.50001157  .00033227  00000+0  23994-3 0  9999
2 53987  53.2189   9.7632 0002669  25.1236 148.0887 15.73225538  2998
STARLINK-5113           
1 53988U 22125AA  22295.50001157  .00043543  00000+0  31332-3 0  9997
2 53988  53.2192   9.7597 0002820  17.9731 157.6466 15.73177398  2990
STARLINK-5115           
1 53989U 22125AB  22295.50001157 -.00010117  00000+0 -67581-4 0  9997
2 53989  53.2189   9.7618 0003419  13.5749 160.8246 15.73241821  2992
STARLINK-5075           
1 53990U 22125AC  22295.16667824  .00088775  00000+0  63199-3 0  9993
2 53990  53.2196  11.4035 0002363  16.4614  72.0835 15.73135078  2944
STARLINK-5118           
1 53991U 22125AD  22295.50001157 -.00509169  00000+0 -33456-2 0  9992
2 53991  53.2186   9.0891 0001838  37.6455 107.8391 15.76395545  3003
STARLINK-5108           
1 53992U 22125AE  22295.50001157  .00048014  00000+0  34487-3 0  9994
2 53992  53.2190   9.7535 0002572  17.9189 160.6905 15.73177077  2992
STARLINK-5121           
1 53993U 22125AF  22295.50001157  .00044236  00000+0  31806-3 0  9999
2 53993  53.2198   9.7559 0002421  21.7461 155.0786 15.73189533  2991
STARLINK-5125           
1 53994U 22125AG  22295.50001157 -.00036541  00000+0 -25662-3 0  9995
2 53994  53.2189   9.7483 0002639  14.7619 166.2252 15.73234574  2994
STARLINK-5097           
1 53995U 22125AH  22295.50001157  .00012026  00000+0  90014-4 0  9990
2 53995  53.2187   9.7513 0002991  15.7465 163.4461 15.73190580  2997
STARLINK-5131           
1 53996U 22125AJ  22295.50001157  .00032911  00000+0  23794-3 0  9996
2 53996  53.2193   9.7476 0002856  26.7561 154.8422 15.73202818  2991
STARLINK-5130           
1 53997U 22125AK  22295.25001157 -.00034331  00000+0 -24087-3 0  9995
2 53997  53.2191  10.9864 0002162  21.4825 181.5687 15.73227627  2951
STARLINK-5128           
1 53998U 22125AL  22295.50001157  .00046938  00000+0  33726-3 0  9998
2 53998  53.2187   9.7452 0002769  18.5448 164.2124 15.73178449  2992
STARLINK-5079           
1 53999U 22125AM  22295.25001157  .00045000  00000+0  32366-3 0  9999
2 53999  53.2195  10.9850 0002252  14.3368 189.3658 15.73174633  2957
STARLINK-5088           
1 54000U 22125AN  22295.25001157  .00058706  00000+0  42018-3 0  9995
2 54000  53.2198  10.9794 0002153  26.0110 180.6739 15.73176504  2959
STARLINK-5105           
1 54001U 22125AP  22295.25001157  .00004028  00000+0  33105-4 0  9992
2 54001  53.2192  10.9781 0002268  21.7337 185.5577 15.73207204  2945
STARLINK-5109           
1 54002U 22125AQ  22295.58334491  .00060625  00000+0  43392-3 0  9992
2 54002  53.2226   9.2938 0002569  26.2258 289.6187 15.73162446  2991
STARLINK-5114           
1 54003U 22125AR  22295.25001157  .00063068  00000+0  45060-3 0  9995
2 54003  53.2196  10.9816 0002441  20.8145 184.6880 15.73188372  2941
STARLINK-5129           
1 54004U 22125AS  22295.25001157  .00060012  00000+0  42930-3 0  9995
2 54004  53.2197  10.9746 0002774  21.3240 187.7567 15.73178430  2946
STARLINK-5135           
1 54005U 22125AT  22295.25001157 -.00014481  00000+0 -98887-4 0  9990
2 54005  53.2190  10.9765 0002490  24.7828 183.0905 15.73204512  2941
STARLINK-5096           
1 54006U 22125AU  22295.25001157 -.00029798  00000+0 -20827-3 0  9996
2 54006  53.2197  10.9696 0002204  25.7480 186.2982 15.73238038  2940
STARLINK-5132           
1 54007U 22125AV  22295.25001157 -.00021509  00000+0 -14906-3 0  9990
2 54007  53.2193  10.9737 0002019  23.7113 185.9612 15.73221965  2945
STARLINK-5145           
1 54008U 22125AW  22295.58334491  .00092350  00000+0  65568-3 0  9997
2 54008  53.2218   9.0566 0001384  31.8291  41.3221 15.73183157  2990
STARLINK-5099           
1 54009U 22125AX  22295.58334491  .00080740  00000+0  57476-3 0  9997
2 54009  53.2192   9.3235 0002799  22.7194 277.0298 15.73173478  2997
STARLINK-5127           
1 54010U 22125AY  22295.25001157 -.00684951  00000+0 -50466-2 0  9990
2 54010  53.2183  10.7021 0001660  33.7690 311.0397 15.74266956  2946
STARLINK-5124           
1 54011U 22125AZ  22295.25001157 -.00024452  00000+0 -17010-3 0  9994
2 54011  53.2190  10.9721 0002000  23.6713 186.5670 15.73225491  2944
STARLINK-5126           
1 54012U 22125BA  22295.58334491 -.00025301  00000+0 -17604-3 0  9994
2 54012  53.2195   9.3171 0002583  16.3254 287.0399 15.73240107  2997
STARLINK-5098           
1 54013U 22125BB  22295.25001157 -.00039890  00000+0 -28074-3 0  9990
2 54013  53.2191  10.9661 0002633  18.5186 194.6997 15.73228171  2949
